{"type": "FeatureCollection", "features": [ {"type": "Feature", "properties": {"norad_id": 44804, "name": "CARTOSAT-3", "group": "resource", "lat": -25.573072697225456, "lon": 59.42843469022759, "alt_km": 512.013642998867, "timestamp": "2025-12-22T08:58:20.001071+00:00", "meta": {"OBJECT_NAME": "CARTOSAT-3", "OBJECT_ID": "2019-081A", "EPOCH": "2025-12-22T04:20:35.431296", "MEAN_MOTION": 15.19225848, "ECCENTRICITY": 0.0013707, "INCLINATION": 97.4572, "RA_OF_ASC_NODE": 55.6443, "ARG_OF_PERICENTER": 53.5533, "MEAN_ANOMALY": 306.6963, "EPHEMERIS_TYPE": 0, "CLASSIFICATION_TYPE": "U", "NORAD_CAT_ID": 44804, "ELEMENT_SET_NO": 999, "REV_AT_EPOCH": 33659, "BSTAR": 0.00021729, "MEAN_MOTION_DOT": 4.518e-05, "MEAN_MOTION_DDOT": 0}, "tle": {"line1": "1 44804U 19081A   25356.18096564  .00004518  00000+0  21729-3 0  9990", "line2": "2 44804  97.4572  55.6443 0013707  53.5533 306.6963 15.19225848336599"}}, "geometry": {"type": "Point", "coordinates": [59.42843469022759, -25.573072697225456]}}, {"type": "Feature", "properties": {"norad_id": 44819, "name": "GAOFEN-12 01", "group": "resource", "lat": -4.14491629752522, "lon": -178.16814475687823, "alt_km": 629.3920099412926, "timestamp": "2025-12-22T08:58:20.001081+00:00", "meta": {"OBJECT_NAME": "GAOFEN-12 01", "OBJECT_ID": "2019-082A", "EPOCH": "2025-12-22T04:53:59.081856", "MEAN_MOTION": 14.80667954, "ECCENTRICITY": 0.0001965, "INCLINATION": 97.8124, "RA_OF_ASC_NODE": 2.2367, "ARG_OF_PERICENTER": 188.7014, "MEAN_ANOMALY": 171.4165, "EPHEMERIS_TYPE": 0, "CLASSIFICATION_TYPE": "U", "NORAD_CAT_ID": 44819, "ELEMENT_SET_NO": 999, "REV_AT_EPOCH": 32790, "BSTAR": 6.6456e-05, "MEAN_MOTION_DOT": 4.6e-06, "MEAN_MOTION_DDOT": 0}, "tle": {"line1": "1 44819U 19082A   25356.20415604  .00000460  00000+0  66456-4 0  9999", "line2": "2 44819  97.8124   2.2367 0001965 188.7014 171.4165 14.80667954327905"}}, "geometry": {"type": "Point", "coordinates": [-178.16814475687823, -4.14491629752522]}}, {"type": "Feature", "properties": {"norad_id": 44873, "name": "CSG-1", "group": "resource", "lat": -13.334086472674812, "lon": 179.4339541724565, "alt_km": 627.2647871172949, "timestamp": "2025-12-22T08:58:20.001092+00:00", "meta": {"OBJECT_NAME": "CSG-1", "OBJECT_ID": "2019-092A", "EPOCH": "2025-12-22T04:10:19.396704", "MEAN_MOTION": 14.82152473, "ECCENTRICITY": 0.0001473, "INCLINATION": 97.8803, "RA_OF_ASC_NODE": 177.3558, "ARG_OF_PERICENTER": 85.333, "MEAN_ANOMALY": 274.8051, "EPHEMERIS_TYPE": 0, "CLASSIFICATION_TYPE": "U", "NORAD_CAT_ID": 44873, "ELEMENT_SET_NO": 999, "REV_AT_EPOCH": 32525, "BSTAR": 7.4232e-05, "MEAN_MOTION_DOT": 5.39e-06, "MEAN_MOTION_DDOT": 0}, "tle": {"line1": "1 44873U 19092A   25356.17383561  .00000539  00000+0  74232-4 0  9990", "line2": "2 44873  97.8803 177.3558 0001473  85.3330 274.8051 14.82152473325257"}}, "geometry": {"type": "Point", "coordinates": [179.4339541724565, -13.334086472674812]}}, {"type": "Feature", "properties": {"norad_id": 46277, "name": "NEMO-HD", "group": "resource", "lat": 2.7917660246858644, "lon": 54.995529123651416, "alt_km": 446.7652880885271, "timestamp": "2025-12-22T08:58:20.001102+00:00", "meta": {"OBJECT_NAME": "NEMO-HD", "OBJECT_ID": "2020-061F", "EPOCH": "2025-12-22T04:16:59.571264", "MEAN_MOTION": 15.40509187, "ECCENTRICITY": 0.0001274, "INCLINATION": 97.2196, "RA_OF_ASC_NODE": 55.1568, "ARG_OF_PERICENTER": 51.9778, "MEAN_ANOMALY": 308.1584, "EPHEMERIS_TYPE": 0, "CLASSIFICATION_TYPE": "U", "NORAD_CAT_ID": 46277, "ELEMENT_SET_NO": 999, "REV_AT_EPOCH": 29469, "BSTAR": 0.00027619, "MEAN_MOTION_DOT": 0.00011126, "MEAN_MOTION_DDOT": 0}, "tle": {"line1": "1 46277U 20061F   25356.17846726  .00011126  00000+0  27619-3 0  9995", "line2": "2 46277  97.2196  55.1568 0001274  51.9778 308.1584 15.40509187294692"}}, "geometry": {"type": "Point", "coordinates": [54.995529123651416, 2.7917660246858644]}}, {"type": "Feature", "properties": {"norad_id": 46984, "name": "SENTINEL-6A", "group": "resource", "lat": -53.067044134622726, "lon": -1.4380849612146174, "alt_km": 1338.5439016119844, "timestamp": "2025-12-22T08:58:20.001112+00:00", "meta": {"OBJECT_NAME": "SENTINEL-6A", "OBJECT_ID": "2020-086A", "EPOCH": "2025-12-21T18:36:03.861216", "MEAN_MOTION": 12.80930825, "ECCENTRICITY": 0.0007721, "INCLINATION": 66.0396, "RA_OF_ASC_NODE": 143.5414, "ARG_OF_PERICENTER": 269.3497, "MEAN_ANOMALY": 90.6633, "EPHEMERIS_TYPE": 0, "CLASSIFICATION_TYPE": "U", "NORAD_CAT_ID": 46984, "ELEMENT_SET_NO": 999, "REV_AT_EPOCH": 23760, "BSTAR": -4.0051e-05, "MEAN_MOTION_DOT": -7e-07, "MEAN_MOTION_DDOT": 0}, "tle": {"line1": "1 46984U 20086A   25355.77504469 -.00000070  00000+0 -40051-4 0  9991", "line2": "2 46984  66.0396 143.5414 0007721 269.3497  90.6633 12.80930825237605"}}, "geometry": {"type": "Point", "coordinates": [-1.4380849612146174, -53.067044134622726]}}, {"type": "Feature", "properties": {"norad_id": 48079, "name": "GAOFEN-12 02", "group": "resource", "lat": -16.11182384713911, "lon": 168.00998884307475, "alt_km": 633.0600049115301, "timestamp": "2025-12-22T08:58:20.001122+00:00", "meta": {"OBJECT_NAME": "GAOFEN-12 02", "OBJECT_ID": "2021-026A", "EPOCH": "2025-12-22T04:50:44.529792", "MEAN_MOTION": 14.80685902, "ECCENTRICITY": 0.0003598, "INCLINATION": 97.9855, "RA_OF_ASC_NODE": 350.1628, "ARG_OF_PERICENTER": 82.1799, "MEAN_ANOMALY": 277.9822, "EPHEMERIS_TYPE": 0, "CLASSIFICATION_TYPE": "U", "NORAD_CAT_ID": 48079, "ELEMENT_SET_NO": 999, "REV_AT_EPOCH": 25557, "BSTAR": 6.7094e-05, "MEAN_MOTION_DOT": 4.63e-06, "MEAN_MOTION_DDOT": 0}, "tle": {"line1": "1 48079U 21026A   25356.20190428  .00000463  00000+0  67094-4 0  9998", "line2": "2 48079  97.9855 350.1628 0003598  82.1799 277.9822 14.80685902255573"}}, "geometry": {"type": "Point", "coordinates": [168.00998884307475, -16.11182384713911]}}, {"type": "Feature", "properties": {"norad_id": 48268, "name": "PLEIADES NEO 3", "group": "resource", "lat": -61.65764740868607, "lon": 83.58425885550852, "alt_km": 632.0860959725242, "timestamp": "2025-12-22T08:58:20.001133+00:00", "meta": {"OBJECT_NAME": "PLEIADES NEO 3", "OBJECT_ID": "2021-034A", "EPOCH": "2025-12-22T04:23:32.839008", "MEAN_MOTION": 14.81674956, "ECCENTRICITY": 0.0001397, "INCLINATION": 97.8949, "RA_OF_ASC_NODE": 68.4888, "ARG_OF_PERICENTER": 90.17, "MEAN_ANOMALY": 269.9673, "EPHEMERIS_TYPE": 0, "CLASSIFICATION_TYPE": "U", "NORAD_CAT_ID": 48268, "ELEMENT_SET_NO": 999, "REV_AT_EPOCH": 25144, "BSTAR": 5.6588e-05, "MEAN_MOTION_DOT": 3.93e-06, "MEAN_MOTION_DDOT": 0}, "tle": {"line1": "1 48268U 21034A   25356.18301897  .00000393  00000+0  56588-4 0  9996", "line2": "2 48268  97.8949  68.4888 0001397  90.1700 269.9673 14.81674956251444"}}, "geometry": {"type": "Point", "coordinates": [83.58425885550852, -61.65764740868607]}}, {"type": "Feature", "properties": {"norad_id": 49070, "name": "PLEIADES NEO 4", "group": "resource", "lat": 61.49036013803995, "lon": -96.52529660425061, "alt_km": 617.3027001054879, "timestamp": "2025-12-22T08:58:20.001143+00:00", "meta": {"OBJECT_NAME": "PLEIADES NEO 4", "OBJECT_ID": "2021-073E", "EPOCH": "2025-12-20T17:32:43.601280", "MEAN_MOTION": 14.81672177, "ECCENTRICITY": 0.00013249, "INCLINATION": 97.8951, "RA_OF_ASC_NODE": 67.0538, "ARG_OF_PERICENTER": 89.6187, "MEAN_ANOMALY": 270.5178, "EPHEMERIS_TYPE": 0, "CLASSIFICATION_TYPE": "U", "NORAD_CAT_ID": 49070, "ELEMENT_SET_NO": 999, "REV_AT_EPOCH": 23494, "BSTAR": -3.6645539e-05, "MEAN_MOTION_DOT": -3.4e-06, "MEAN_MOTION_DDOT": 0}, "tle": {"line1": "1 49070U 21073E   25354.73106020 -.00000340  00000+0 -36646-4 0  9998", "line2": "2 49070  97.8951  67.0538 0001324  89.6187 270.5178 14.81672177234945"}}, "geometry": {"type": "Point", "coordinates": [-96.52529660425061, 61.49036013803995]}}, {"type": "Feature", "properties": {"norad_id": 49260, "name": "LANDSAT 9", "group": "resource", "lat": 3.2428671287719606, "lon": 63.87609765139056, "alt_km": 705.0516596741127, "timestamp": "2025-12-22T08:58:20.001153+00:00", "meta": {"OBJECT_NAME": "LANDSAT 9", "OBJECT_ID": "2021-088A", "EPOCH": "2025-12-22T04:00:46.819584", "MEAN_MOTION": 14.57107311, "ECCENTRICITY": 0.0001097, "INCLINATION": 98.2082, "RA_OF_ASC_NODE": 64.1411, "ARG_OF_PERICENTER": 92.1873, "MEAN_ANOMALY": 267.9451, "EPHEMERIS_TYPE": 0, "CLASSIFICATION_TYPE": "U", "NORAD_CAT_ID": 49260, "ELEMENT_SET_NO": 999, "REV_AT_EPOCH": 22522, "BSTAR": 0.00010286, "MEAN_MOTION_DOT": 4.18e-06, "MEAN_MOTION_DDOT": 0}, "tle": {"line1": "1 49260U 21088A   25356.16720856  .00000418  00000+0  10286-3 0  9998", "line2": "2 49260  98.2082  64.1411 0001097  92.1873 267.9451 14.57107311225223"}}, "geometry": {"type": "Point", "coordinates": [63.87609765139056, 3.2428671287719606]}}, {"type": "Feature", "properties": {"norad_id": 51444, "name": "CSG-2", "group": "resource", "lat": 13.053842211177015, "lon": -0.6086874194355807, "alt_km": 623.6091391440696, "timestamp": "2025-12-22T08:58:20.001163+00:00", "meta": {"OBJECT_NAME": "CSG-2", "OBJECT_ID": "2022-008A", "EPOCH": "2025-12-22T03:21:42.727968", "MEAN_MOTION": 14.82152996, "ECCENTRICITY": 0.0001479, "INCLINATION": 97.8799, "RA_OF_ASC_NODE": 177.321, "ARG_OF_PERICENTER": 83.0702, "MEAN_ANOMALY": 277.0679, "EPHEMERIS_TYPE": 0, "CLASSIFICATION_TYPE": "U", "NORAD_CAT_ID": 51444, "ELEMENT_SET_NO": 999, "REV_AT_EPOCH": 21036, "BSTAR": 8.6697e-05, "MEAN_MOTION_DOT": 6.38e-06, "MEAN_MOTION_DDOT": 0}, "tle": {"line1": "1 51444U 22008A   25356.14007787  .00000638  00000+0  86697-4 0  9991", "line2": "2 51444  97.8799 177.3210 0001479  83.0702 277.0679 14.82152996210368"}}, "geometry": {"type": "Point", "coordinates": [-0.6086874194355807, 13.053842211177015]}}]}